[{"OBJECT_NAME":"OBJECT A","OBJECT_ID":"2025-180A","EPOCH":"2026-03-01T05:02:02.349888","MEAN_MOTION":15.19541211,"ECCENTRICITY":0.00119112,"INCLINATION":97.5026,"RA_OF_ASC_NODE":189.2879,"ARG_OF_PERICENTER":335.2896,"MEAN_ANOMALY":24.7766,"EPHEMERIS_TYPE":0,"CLASSIFICATION_TYPE":"U","NORAD_CAT_ID":65259,"ELEMENT_SET_NO":999,"REV_AT_EPOCH":2937,"BSTAR":0.0010883245,"MEAN_MOTION_DOT":0.00023159,"MEAN_MOTION_DDOT":0},{"OBJECT_NAME":"AC1-002","OBJECT_ID":"2025-276CH","EPOCH":"2026-03-09T16:54:04.093056","MEAN_MOTION":15.17945166,"ECCENTRICITY":0.00020889,"INCLINATION":97.4267,"RA_OF_ASC_NODE":143.9072,"ARG_OF_PERICENTER":20.2082,"MEAN_ANOMALY":339.9235,"EPHEMERIS_TYPE":0,"CLASSIFICATION_TYPE":"U","NORAD_CAT_ID":66745,"ELEMENT_SET_NO":999,"REV_AT_EPOCH":1531,"BSTAR":0.00016926708,"MEAN_MOTION_DOT":3.369e-5,"MEAN_MOTION_DDOT":0}]
